ASTRA 1M                
1 33436U 08057A   26193.13910453  .00000123  00000+0  00000+0 0  9990
2 33436   0.3580  82.7103 0004389  39.8454 236.9625  1.00268107 45989
EUTELSAT HOTBIRD 13C    
1 33459U 08065A   26193.21667601 -.00000284  00000+0  00000+0 0  9996
2 33459   3.0120  78.8944 0003326  34.4943 204.4186  1.00271787 47596
EXPRESS-AM44            
1 33595U 09007A   26193.13303782 -.00000090  00000+0  00000+0 0  9997
2 33595   3.5237  78.0914 0003725  26.7227 222.0892  1.00271226 52530
NSS-9                   
1 33749U 09008A   26193.17151801  .00000073  00000+0  00000+0 0  9996
2 33749   1.3237  82.4101 0001839  19.2849  73.1770  1.00270848 63772
TELSTAR 11N             
1 34111U 09009A   26193.12783779 -.00000248  00000+0  00000+0 0  9996
2 34111   0.0421 265.1992 0002290 201.6917 191.5979  1.00269871 46490
WGS F2 (USA 204)        
1 34713U 09017A   26193.00403435  .00000072  00000+0  00000+0 0  9992
2 34713   0.0172  26.9184 0000511 198.2586 123.6690  1.00270798 45860
SES-7 (PROTOSTAR 2)     
1 34941U 09027A   26193.07683522 -.00000342  00000+0  00000+0 0  9991
2 34941   0.0235  59.6322 0000503 177.8898 188.3565  1.00269713 62874
MEASAT-3A               
1 35362U 09032A   26193.16692464 -.00000108  00000+0  00000+0 0  9990
2 35362   0.0400 310.3262 0002577 150.4867  49.3327  1.00269877  8280
GOES 14                 
1 35491U 09033A   26192.94653867 -.00000353  00000+0  00000+0 0  9995
2 35491   1.7509  82.7349 0001872  40.3588 274.5966  1.00099712  6830
FM-5                    
1 35493U 09034A   26192.83302265 -.00000196  00000+0  00000+0 0  9994
2 35493   0.0375 275.4581 0000613  56.6820 171.3190  1.00271678 46891
TERRESTAR-1             
1 35496U 09035A   26193.11068301 -.00000058  00000+0  00000+0 0  9997
2 35496   5.1963  48.7773 0002603  56.2611 113.8224  1.00273111 62387
ASIASAT 5               
1 35696U 09042A   26193.11622317 -.00000305  00000+0  00000+0 0  9995
2 35696   0.0100 296.4910 0001740 143.9917 351.8630  1.00274169 61956
JCSAT-12 (JCSAT-RA)     
1 35755U 09044A   26193.01885443 -.00000324  00000+0  00000+0 0  9994
2 35755   0.0384 283.3080 0000625 294.4240 211.0253  1.00270525 61850
OPTUS D3                
1 35756U 09044B   26193.13308683 -.00000142  00000+0  00000+0 0  9992
2 35756   0.8913 268.2634 0003013 210.3838  15.4262  1.00269514 61816
NIMIQ 5                 
1 35873U 09050A   26193.12085534 -.00000254  00000+0  00000+0 0  9999
2 35873   0.0513 257.4081 0002527 208.8505 154.5635  1.00271740 61590
AMAZONAS 2              
1 35942U 09054A   26193.12085534 -.00000258  00000+0  00000+0 0  9994
2 35942   1.8774  82.7301 0003130  30.3676 148.4364  1.00270882 61437
COMSATBW-1              
1 35943U 09054B   26193.18219507  .00000028  00000+0  00000+0 0  9994
2 35943   0.0621 185.0473 0002611 287.1546 306.5029  1.00269055 61556
NSS-12                  
1 36032U 09058A   26193.14655788  .00000075  00000+0  00000+0 0  9991
2 36032   0.0432 286.9309 0004372 149.4348 323.4219  1.00268246 61168
THOR 6                  
1 36033U 09058B   26193.13503117 -.00000007  00000+0  00000+0 0  9995
2 36033   0.0110 295.9585 0001552 168.4040 233.4355  1.00270189 61255
INTELSAT 14 (IS-14)     
1 36097U 09064A   26193.12797934 -.00000271  00000+0  00000+0 0  9996
2 36097   0.0169  33.6639 0002225  82.5715 174.8739  1.00271051 60857
EUTELSAT 36B            
1 36101U 09065A   26193.14525788  .00000114  00000+0  00000+0 0  9996
2 36101   0.5515  81.3020 0005709  31.4006 280.1158  1.00272500 60950
INTELSAT 15 (IS-15)     
1 36106U 09067A   26193.14558608 -.00000182  00000+0  00000+0 0  9996
2 36106   0.0153  59.8714 0002088  60.0676 307.6668  1.00271125 41475
WGS F3 (USA 211)        
1 36108U 09068A   26192.75302277  .00000068  00000+0  00000+0 0  9996
2 36108   0.3011  85.6404 0000685  96.8336 248.2892  1.00271500 46838
DIRECTV 12              
1 36131U 09075A   26192.97227877 -.00000100  00000+0  00000+0 0  9994
2 36131   0.0086 141.5064 0000388  86.3158 309.3364  1.00271145 46808
BEIDOU-2 G1             
1 36287U 10001A   26192.94922535 -.00000280  00000+0  00000+0 0  9996
2 36287   4.3481  60.3170 0001892 291.2358  60.4652  1.00273300 60415
SDO                     
1 36395U 10005A   26192.24778596 -.00000102  00000+0  00000+0 0  9992
2 36395  34.6998  85.9778 0002020  56.2745 133.8056  1.00277272 60307
INTELSAT 16 (IS-16)     
1 36397U 10006A   26193.12016199 -.00000242  00000+0  00000+0 0  9992
2 36397   0.0067  36.0520 0002278  99.8392 121.1815  1.00270866 59900
EWS-G2 (GOES 15)        
1 36411U 10008A   26193.18219507  .00000023  00000+0  00000+0 0  9991
2 36411   1.3436  82.5028 0005204  53.7849 282.7295  1.00268209 59889
ECHOSTAR 14             
1 36499U 10010A   26193.18298507  .00000003  00000+0  00000+0 0  9995
2 36499   0.0462 259.3820 0001908 192.5696 145.0858  1.00270631 46809
SES-1                   
1 36516U 10016A   26193.11522198 -.00000111  00000+0  00000+0 0  9991
2 36516   0.0431 285.5909 0002370 184.5598 120.3307  1.00271660 59284
ASTRA 3B                
1 36581U 10021A   26193.13988453  .00000138  00000+0  00000+0 0  9999
2 36581   1.5321  83.2575 0004466  18.0696 262.5853  1.00268842 59115
COMSATBW-2              
1 36582U 10021B   26193.13789117  .00000091  00000+0  00000+0 0  9994
2 36582   0.0479 123.8819 0002365   7.0883 221.9192  1.00272795 59205
