OBJECT_NAME,OBJECT_ID,EPOCH,MEAN_MOTION,ECCENTRICITY,INCLINATION,RA_OF_ASC_NODE,ARG_OF_PERICENTER,MEAN_ANOMALY,EPHEMERIS_TYPE,CLASSIFICATION_TYPE,NORAD_CAT_ID,ELEMENT_SET_NO,REV_AT_EPOCH,BSTAR,MEAN_MOTION_DOT,MEAN_MOTION_DDOT
ASTRA 1M,2008-057A,2026-07-12T03:20:18.631392,1.00268107,.0004389,0.3580,82.7103,39.8454,236.9625,0,U,33436,999,4598,0,.123E-5,0
EUTELSAT HOTBIRD 13C,2008-065A,2026-07-12T05:12:00.807264,1.00271787,.0003326,3.0120,78.8944,34.4943,204.4186,0,U,33459,999,4759,0,-.284E-5,0
EXPRESS-AM44,2009-007A,2026-07-12T03:11:34.467648,1.00271226,.0003725,3.5237,78.0914,26.7227,222.0892,0,U,33595,999,5253,0,-.9E-6,0
NSS-9,2009-008A,2026-07-12T04:06:59.156064,1.00270848,.0001839,1.3237,82.4101,19.2849,73.1770,0,U,33749,999,6377,0,.73E-6,0
TELSTAR 11N,2009-009A,2026-07-12T03:04:05.185056,1.00269871,.000229,0.0421,265.1992,201.6917,191.5979,0,U,34111,999,4649,0,-.248E-5,0
WGS F2 (USA 204),2009-017A,2026-07-12T00:05:48.567840,1.00270798,.0000511,0.0172,26.9184,198.2586,123.6690,0,U,34713,999,4586,0,.72E-6,0
SES-7 (PROTOSTAR 2),2009-027A,2026-07-12T01:50:38.563008,1.00269713,.0000503,0.0235,59.6322,177.8898,188.3565,0,U,34941,999,6287,0,-.342E-5,0
MEASAT-3A,2009-032A,2026-07-12T04:00:22.288896,1.00269877,.0002577,0.0400,310.3262,150.4867,49.3327,0,U,35362,999,828,0,-.108E-5,0
GOES 14,2009-033A,2026-07-11T22:43:00.941088,1.00099712,.0001872,1.7509,82.7349,40.3588,274.5966,0,U,35491,999,683,0,-.353E-5,0
FM-5,2009-034A,2026-07-11T19:59:33.156960,1.00271678,.00006137,0.0375,275.4581,56.6820,171.3190,0,U,35493,999,4689,0,-.196E-5,0
TERRESTAR-1,2009-035A,2026-07-12T02:39:23.012064,1.00273111,.0002603,5.1963,48.7773,56.2611,113.8224,0,U,35496,999,6238,0,-.58E-6,0
ASIASAT 5,2009-042A,2026-07-12T02:47:21.681888,1.00274169,.000174,0.0100,296.4910,143.9917,351.8630,0,U,35696,999,6195,0,-.305E-5,0
JCSAT-12 (JCSAT-RA),2009-044A,2026-07-12T00:27:09.022752,1.00270525,.0000625,0.0384,283.3080,294.4240,211.0253,0,U,35755,999,6185,0,-.324E-5,0
OPTUS D3,2009-044B,2026-07-12T03:11:38.702112,1.00269514,.0003013,0.8913,268.2634,210.3838,15.4262,0,U,35756,999,6181,0,-.142E-5,0
NIMIQ 5,2009-050A,2026-07-12T02:54:01.901376,1.00271740,.0002527,0.0513,257.4081,208.8505,154.5635,0,U,35873,999,6159,0,-.254E-5,0
AMAZONAS 2,2009-054A,2026-07-12T02:54:01.901376,1.00270882,.000313,1.8774,82.7301,30.3676,148.4364,0,U,35942,999,6143,0,-.258E-5,0
COMSATBW-1,2009-054B,2026-07-12T04:22:21.654048,1.00269055,.0002611,0.0621,185.0473,287.1546,306.5029,0,U,35943,999,6155,0,.28E-6,0
NSS-12,2009-058A,2026-07-12T03:31:02.600832,1.00268246,.0004372,0.0432,286.9309,149.4348,323.4219,0,U,36032,999,6116,0,.75E-6,0
THOR 6,2009-058B,2026-07-12T03:14:26.693088,1.00270189,.0001552,0.0110,295.9585,168.4040,233.4355,0,U,36033,999,6125,0,-.7E-7,0
INTELSAT 14 (IS-14),2009-064A,2026-07-12T03:04:17.414976,1.00271051,.0002225,0.0169,33.6639,82.5715,174.8739,0,U,36097,999,6085,0,-.271E-5,0
EUTELSAT 36B,2009-065A,2026-07-12T03:29:10.280832,1.00272500,.0005709,0.5515,81.3020,31.4006,280.1158,0,U,36101,999,6095,0,.114E-5,0
INTELSAT 15 (IS-15),2009-067A,2026-07-12T03:29:38.637312,1.00271125,.0002088,0.0153,59.8714,60.0676,307.6668,0,U,36106,999,4147,0,-.182E-5,0
WGS F3 (USA 211),2009-068A,2026-07-11T18:04:21.167328,1.00271500,.00006855,0.3011,85.6404,96.8336,248.2892,0,U,36108,999,4683,0,.68E-6,0
DIRECTV 12,2009-075A,2026-07-11T23:20:04.885728,1.00271145,.0000388,0.0086,141.5064,86.3158,309.3364,0,U,36131,999,4680,0,-.1E-5,0
BEIDOU-2 G1,2010-001A,2026-07-11T22:46:53.070240,1.00273300,.0001892,4.3481,60.3170,291.2358,60.4652,0,U,36287,999,6041,0,-.28E-5,0
SDO,2010-005A,2026-07-11T05:56:48.706944,1.00277272,.00020204,34.6998,85.9778,56.2745,133.8056,0,U,36395,999,6030,0,-.102E-5,0
INTELSAT 16 (IS-16),2010-006A,2026-07-12T02:53:01.995936,1.00270866,.0002278,0.0067,36.0520,99.8392,121.1815,0,U,36397,999,5990,0,-.242E-5,0
EWS-G2 (GOES 15),2010-008A,2026-07-12T04:22:21.654048,1.00268209,.0005204,1.3436,82.5028,53.7849,282.7295,0,U,36411,999,5988,0,.23E-6,0
ECHOSTAR 14,2010-010A,2026-07-12T04:23:29.910048,1.00270631,.0001908,0.0462,259.3820,192.5696,145.0858,0,U,36499,999,4680,0,.3E-7,0
SES-1,2010-016A,2026-07-12T02:45:55.179072,1.00271660,.000237,0.0431,285.5909,184.5598,120.3307,0,U,36516,999,5928,0,-.111E-5,0
ASTRA 3B,2010-021A,2026-07-12T03:21:26.023392,1.00268842,.0004466,1.5321,83.2575,18.0696,262.5853,0,U,36581,999,5911,0,.138E-5,0
COMSATBW-2,2010-021B,2026-07-12T03:18:33.797088,1.00272795,.0002365,0.0479,123.8819,7.0883,221.9192,0,U,36582,999,5920,0,.91E-6,0
